ONEWEB-0716             
1 55177U 23004AP  24214.32946469  .00000066  00000+0  13692-3 0  9995
2 55177  87.9193 142.2629 0002062  73.8903 286.2456 13.17649863 77397
ONEWEB-0717             
1 55178U 23004AQ  24214.53950484  .00000004  00000+0 -22311-4 0  9993
2 55178  87.9189 142.1847 0002676  96.4326 263.7111 13.17648938 77474
ONEWEB-0719             
1 55179U 23004AR  24213.86738795  .00000057  00000+0  11410-3 0  9992
2 55179  87.9189 142.3042 0002314  73.8390 286.2996 13.17651253 77333
ONEWEB-0530             
1 55796U 23029A   24213.94604183  .00000082  00000+0  16975-3 0  9995
2 55796  87.9183  50.7949 0002403  91.5910 268.5499 13.20773022 70690
ONEWEB-0534             
1 55797U 23029B   24214.53945924  .00000009  00000+0 -10051-4 0  9993
2 55797  87.9184  50.6836 0001834  81.7014 278.4327 13.20768355 71468
ONEWEB-0556             
1 55798U 23029C   24214.09124602  .00000019  00000+0  14027-4 0  9994
2 55798  87.9184  50.7662 0002580  74.0525 286.0893 13.20772222 71403
ONEWEB-0562             
1 55799U 23029D   24213.92710173  .00000038  00000+0  61838-4 0  9993
2 55799  87.9183  50.7900 0002928  85.9716 274.1752 13.20772608 70697
ONEWEB-0563             
1 55800U 23029E   24214.52683118  .00000024  00000+0  26064-4 0  9998
2 55800  87.9184  50.6852 0001757  77.8231 282.3099 13.20770196 71446
